COSMOS 1892             
1 18421U 87088A   20356.96983458  .00000676  00000-0  32074-4 0  9994
2 18421  82.5008  87.9430 0016189 131.3727 228.8902 15.17387295813204
SL-14 R/B               
1 18749U 88001B   20357.11428155  .00000092  00000-0  82256-5 0  9999
2 18749  82.5131 181.7799 0019794  43.3100  96.0371 14.83239097780786
COSMOS 1933             
1 18958U 88020A   20356.90842060  .00000018  00000-0 -78410-6 0  9990
2 18958  82.5294 304.5584 0010153 228.2759 131.7600 15.03823810763259
SL-3 R/B                
1 19046U 88032B   20356.90132162  .00000220  00000-0  20650-4 0  9992
2 19046  97.3952   9.5634 0034652 288.9139  70.8332 15.02828289765112
SL-16 R/B               
1 19120U 88039B   20356.81166471 -.00000156  00000-0 -51301-4 0  9999
2 19120  71.0142 132.6278 0021313  14.0364 346.1348 14.19217213688234
COSMOS 1953             
1 19210U 88050A   20356.74555221  .00000328  00000-0  20385-4 0  9996
2 19210  82.5177 228.0080 0012954 194.2330 165.8534 15.06124526749855
SL-8 R/B                
1 19257U 88053B   20356.80822566  .00000075  00000-0  33958-4 0  9995
2 19257  74.0491  16.4870 0021599 306.9564 226.1551 14.37495566702928
COSMOS 1975             
1 19573U 88093A   20356.79044971  .00000702  00000-0  47406-4 0  9994
2 19573  82.5184 182.7127 0012563 242.1634 117.8320 15.05014408731687
SL-14 R/B               
1 19574U 88093B   20356.84251912  .00000085  00000-0  73603-5 0  9999
2 19574  82.5320  24.8211 0021032 200.2491 332.6064 14.83350263718647
SL-16 R/B               
1 19650U 88102B   20356.99739900 -.00000190  00000-0 -72182-4 0  9998
2 19650  70.9983 195.5427 0013400  19.7044 340.4594 14.15798020657706
INTERCOSMOS 24          
1 20261U 89080A   20356.83512874  .00000190  00000-0  51084-4 0  9992
2 20261  82.6049 259.0099 1203116  15.4855 347.9883 12.56159902427520
SL-14 R/B               
1 20262U 89080C   20356.86909825  .00000013  00000-0  43532-6 0  9997
2 20262  82.5935 313.8665 1236294 209.7606 142.7305 12.48953241422385
DELTA 2 R/B(1)          
1 20303U 89085B   20356.89800899  .00004118  00000-0  13068-3 0  9990
2 20303  35.6366 272.3476 0092014  43.3784 317.4141 15.28241196697287
DELTA 1 R/B             
1 20323U 89089B   20357.06275461  .00000040  00000-0  19540-4 0  9999
2 20323  97.1147 113.1714 0071651   2.0919 358.0564 14.48375430640550
ARIANE 40 R/B           
1 20443U 90005H   20357.09074090  .00000001  00000-0  15012-4 0  9997
2 20443  98.5540  58.3827 0011211 140.1747 220.0264 14.38110179619343
DELTA 2 R/B(1)          
1 20453U 90008B   20357.05057493  .00002404  00000-0  13587-3 0  9998
2 20453  35.6226 229.8388 0277978  71.2616 291.8049 14.86033572639115
COSMOS 2058             
1 20465U 90010A   20357.00989494  .00000447  00000-0  35443-4 0  9995
2 20465  82.4899  92.8675 0013917 290.4929  69.4800 14.98107529677511
SL-14 R/B               
1 20466U 90010B   20357.11851637  .00000082  00000-0  74324-5 0  9992
2 20466  82.5038 251.1372 0022055  81.6398 278.7315 14.81404495667570
SL-14 R/B               
1 20511U 90018B   20357.08052487  .00000077  00000-0  70972-5 0  9992
2 20511  82.5224 198.4006 0016455 218.7964 255.3748 14.80059851661963
HST                     
1 20580U 90037B   20357.15072579  .00000526  00000-0  20928-4 0  9995
2 20580  28.4685 158.1257 0002587 316.5496 207.0123 15.09515727484446
SL-16 R/B               
1 20625U 90046B   20356.67340894 -.00000192  00000-0 -74760-4 0  9993
2 20625  70.9998 335.2281 0016299 311.0907  48.8807 14.14665059579097
COSMOS 2084             
1 20663U 90055A   20356.89953021  .00000102  00000-0  27842-4 0  9999
2 20663  62.7947 262.3058 0043107 333.6293  26.2606 14.92166097651328
SL-6 R/B(2)             
1 20666U 90055D   20356.92069145 -.00000002  00000-0  18114-4 0  9993
2 20666  62.7836 178.2030 0073347  13.4754 346.8275 14.92411967652746
SL-8 R/B                
1 20775U 90078B   20356.92225778  .00001837  00000-0  88663-4 0  9997
2 20775  82.9275  71.9744 0569831 333.7935  23.5401 14.35096559532623
SL-8 R/B                
1 21088U 91006B   20356.92975826 -.00000045  00000-0 -61026-4 0  9999
2 21088  82.9415 145.8475 0021847 328.8797 204.0629 13.77147338502015
OKEAN-3                 
1 21397U 91039A   20357.11103392  .00000340  00000-0  30153-4 0  9994
2 21397  82.5212 358.3101 0016188 260.9100  99.0289 14.93011602601323
COSMOS 2151             
1 21422U 91042A   20356.82055699  .00000260  00000-0  23049-4 0  9997
2 21422  82.5009 104.5625 0013318 332.5205  27.5309 14.92191778578821
SL-14 R/B               
1 21423U 91042B   20357.10354339  .00000075  00000-0  69493-5 0  9991
2 21423  82.4933 201.5215 0017816   9.4755 350.6790 14.79809813592457
ERS-1                   
1 21574U 91050A   20357.10854539  .00000041  00000-0  28260-4 0  9993
2 21574  98.6241 310.7580 0034109  88.9974 271.5121 14.37773569542065
ARIANE 40 R/B           
1 21610U 91050F   20357.10437196  .00000014  00000-0  17936-4 0  9998
2 21610  98.4463  64.2765 0004181  67.3658 351.1065 14.40927611545005
INTERCOSMOS 25          
1 21819U 91086A   20356.78309728 -.00000404  00000-0 -83849-4 0  9991
2 21819  82.5933  14.1191 1515288 232.7743 112.5468 12.05206760266851
SL-8 R/B                
1 21876U 92008B   20356.94600020  .00000030  00000-0  15157-4 0  9996
2 21876  82.9274 243.0528 0035918  51.6514 319.4681 13.75670276447652
SL-8 R/B                
1 21938U 92020B   20357.11594080  .00000094  00000-0  81639-4 0  9995
2 21938  82.9297 127.2543 0028765 207.6716 326.0332 13.75291574439765
COSMOS 2219             
1 22219U 92076A   20356.87310919  .00000262  00000-0  16366-3 0  9999
2 22219  71.0600  36.1931 0019874 231.6534 128.2803 14.13647561449300
SL-16 R/B               
1 22220U 92076B   20356.92954219  .00000094  00000-0  71184-4 0  9997
2 22220  70.9997 236.9325 0010866 122.3022 319.5784 14.16465262452223
COSMOS 2221             
1 22236U 92080A   20356.91215976  .00000287  00000-0  28448-4 0  9997
2 22236  82.5084 286.5064 0018130  61.8858 298.4189 14.87989418497150
SL-16 R/B               
1 22285U 92093B   20357.12444612 -.00000301  00000-0 -13085-3 0  9999
2 22285  71.0224  38.8008 0006079 308.7083  51.3495 14.15052040444163
COSMOS 2228             
1 22286U 92094A   20356.83682847  .00000227  00000-0  21762-4 0  9999
2 22286  82.5207 243.0419 0021082 174.6828 185.4618 14.88209122492317
SL-16 R/B               
1 22566U 93016B   20356.87888792 -.00000060  00000-0 -65120-5 0  9990
2 22566  71.0081 252.3242 0011463 329.1460  30.8988 14.14971924432849
COSMOS 2242             
1 22626U 93024A   20356.90012382  .00000238  00000-0  23111-4 0  9992
2 22626  82.5225 271.1821 0018897 173.8788 186.2664 14.88060542496731
SL-16 R/B               
1 22803U 93059B   20356.63699125 -.00000153  00000-0 -52287-4 0  9997
2 22803  70.9915  64.7933 0019211 235.7465 124.1839 14.16830195409814
ARIANE 40 R/B           
1 22830U 93061H   20356.91126615 -.00000030  00000-0  57921-5 0  9994
2 22830  98.7412  47.6079 0011816 129.8009 230.4215 14.31462905421646
COSMOS 2278             
1 23087U 94023A   20357.02414000  .00000323  00000-0  19555-3 0  9992
2 23087  71.0519 195.5957 0007381  47.6718 312.5028 14.13818257375958
SL-16 R/B               
1 23088U 94023B   20356.77824392  .00000197  00000-0  12690-3 0  9995
2 23088  70.9987 107.9387 0005210 294.8465  65.2115 14.14683238376808
SL-16 R/B               
1 23343U 94074B   20356.93756942  .00000038  00000-0  12690-4 0  9993
2 23343  97.9743  48.0152 0005497 266.0324 266.9271 14.76853512406087
SL-16 R/B               
1 23405U 94077B   20356.86176076  .00000187  00000-0  12079-3 0  9996
2 23405  70.9842  36.4168 0003341 218.6241 141.4643 14.15228276346867
ERS-2                   
1 23560U 95021A   20356.76680059  .00001313  00000-0  58750-4 0  9997
2 23560  98.5531 176.1469 0002323 247.3719 112.7269 15.23538598370632
ARIANE 40+ R/B          
1 23561U 95021B   20356.77777966  .00000033  00000-0  25887-4 0  9996
2 23561  98.7015  38.6174 0007840  63.7025  51.4510 14.37999930345495
SL-16 R/B               
1 23705U 95058B   20357.04562802 -.00000262  00000-0 -11047-3 0  9996
2 23705  71.0209 215.3583 0011124 150.8339 209.3407 14.15143364298818
SL-16 R/B               
1 24298U 96051B   20356.89794898 -.00000146  00000-0 -52503-4 0  9996
2 24298  70.8387 235.3729 0013197  74.6721 285.5856 14.12482432252828
ORBVIEW 2 (SEASTAR)     
1 24883U 97037A   20356.87247342  .00000049  00000-0  33743-4 0  9991
2 24883  98.6270 109.3947 0001210 268.6718  91.4328 14.33587364235566
SL-16 R/B               
1 25400U 98043G   20356.84750687 -.00000011  00000-0  13910-4 0  9997
2 25400  98.6256 289.4485 0010530 143.6772 216.5124 14.25466922167712
SL-16 R/B               
1 25407U 98045B   20357.06054724 -.00000285  00000-0 -12053-3 0  9990
2 25407  71.0099 223.3223 0006004  32.1261 328.0227 14.15831409157900
ISS (ZARYA)             
1 25544U 98067A   20356.88843285  .00001434  00000-0  33925-4 0  9990
2 25544  51.6444 139.7220 0001547 150.2126 352.6172 15.49209645261116
SL-8 R/B                
1 25723U 99022C   20356.85682321  .00057977  00000-0  23565-3 0  9991
2 25723  48.4102  48.5078 0000885 278.8700  81.2158 15.85537994207263
CZ-4B R/B               
1 25732U 99025C   20356.87697693 -.00000020  00000-0  12441-4 0  9994
2 25732  98.9257  26.7279 0037928  37.6358 134.9463 14.17685806118371
OKEAN-O                 
1 25860U 99039A   20356.93612701  .00000054  00000-0  15358-4 0  9991
2 25860  98.2013  19.0730 0001329  66.4127 293.7221 14.76700228153188
SL-16 R/B               
1 25861U 99039B   20357.05719008  .00000053  00000-0  14789-4 0  9990
2 25861  98.2094   2.9360 0014313 276.0683 149.6361 14.78610495155488
DELTA 2 R/B             
1 25876U 99041E   20356.87459131 -.00000120  00000-0  20289-4 0  9994
2 25876  51.7650 290.4218 0531301 170.6968 190.4289 14.04490123 94969
